[{"OBJECT_NAME":"METEOR-M2 2","OBJECT_ID":"2019-038A","EPOCH":"2026-03-09T21:58:24.397824","MEAN_MOTION":14.24334247,"ECCENTRICITY":8.489e-5,"INCLINATION":98.9094,"RA_OF_ASC_NODE":54.7702,"ARG_OF_PERICENTER":2.4629,"MEAN_ANOMALY":357.6553,"EPHEMERIS_TYPE":0,"CLASSIFICATION_TYPE":"U","NORAD_CAT_ID":44387,"ELEMENT_SET_NO":999,"REV_AT_EPOCH":34716,"BSTAR":6.6455794e-5,"MEAN_MOTION_DOT":1.08e-6,"MEAN_MOTION_DDOT":0},{"OBJECT_NAME":"CZ-6A DEB","OBJECT_ID":"2024-140ZG","EPOCH":"2026-03-09T02:06:36.347616","MEAN_MOTION":14.28663572,"ECCENTRICITY":0.00768338,"INCLINATION":89.1166,"RA_OF_ASC_NODE":293.426,"ARG_OF_PERICENTER":196.4938,"MEAN_ANOMALY":163.3757,"EPHEMERIS_TYPE":0,"CLASSIFICATION_TYPE":"U","NORAD_CAT_ID":61450,"ELEMENT_SET_NO":999,"REV_AT_EPOCH":7944,"BSTAR":0.0016712258,"MEAN_MOTION_DOT":4.347e-5,"MEAN_MOTION_DDOT":0}]
